IRIDIUM 116             
1 43072U 17083C   24105.87717666  .00000203  00000+0  65457-4 0  9990
2 43072  86.3912 293.5516 0001941  88.3415 271.8003 14.34219477330461
IRIDIUM 130             
1 43073U 17083D   24105.07801722  .00000144  00000+0  44292-4 0  9998
2 43073  86.3921 294.0846 0002247  87.7953 272.3500 14.34216966330293
IRIDIUM 151             
1 43074U 17083E   24105.05264369  .00000145  00000+0  44672-4 0  9990
2 43074  86.3914 293.9366 0002000 101.8386 258.3034 14.34217417330317
IRIDIUM 134             
1 43075U 17083F   24105.57907682  .00000187  00000+0  59766-4 0  9996
2 43075  86.3914 293.7135 0002220  85.6569 274.4880 14.34217667330355
IRIDIUM 137             
1 43076U 17083G   24104.89407833  .00000149  00000+0  46011-4 0  9991
2 43076  86.3917 294.0772 0001656  94.2454 265.8931 14.34216952330325
IRIDIUM 141             
1 43077U 17083H   24105.16679498 -.00000144  00000+0 -58623-4 0  9990
2 43077  86.3910 293.8384 0002039  92.0677 268.0752 14.34216718330364
IRIDIUM 153             
1 43078U 17083J   24104.97943801  .00000043  00000+0  84285-5 0  9991
2 43078  86.3930 262.3466 0002477 101.4403 258.7071 14.34217442331442
IRIDIUM 131             
1 43079U 17083K   24104.80528427  .00000156  00000+0  48697-4 0  9998
2 43079  86.3916 294.1230 0001994  92.4920 267.6504 14.34216971330248
